YAOGAN-30 11B           
1 49028U 21065C   26068.68875565  .00004364  00000+0  32720-3 0  9992
2 49028  34.9931 159.0081 0000960 264.9738  95.0861 15.02134262253658
PICO-02A021             
1 60538U 24149BY  26068.15390193  .00008488  00000+0  64833-3 0  9999
2 60538  97.6823 147.9080 0004195   9.5557 350.5747 15.02201963 84718
